{"type": "FeatureCollection", "features": [ {"type": "Feature", "properties": {"norad_id": 67080, "name": "STARLINK-36158", "group": "last-30-days", "lat": 68.49148168513445, "lon": -66.46954104451922, "alt_km": 297.16696981192763, "timestamp": "2025-12-21T05:44:50.294645+00:00", "meta": {"OBJECT_NAME": "STARLINK-36158", "OBJECT_ID": "2025-298F", "EPOCH": "2025-12-20T22:00:01.999584", "MEAN_MOTION": 15.91138067, "ECCENTRICITY": 0.00041194, "INCLINATION": 69.9984, "RA_OF_ASC_NODE": 226.8945, "ARG_OF_PERICENTER": 273.9785, "MEAN_ANOMALY": 120.2279, "EPHEMERIS_TYPE": 0, "CLASSIFICATION_TYPE": "U", "NORAD_CAT_ID": 67080, "ELEMENT_SET_NO": 999, "REV_AT_EPOCH": 223, "BSTAR": -0.0050563824, "MEAN_MOTION_DOT": -0.01598753, "MEAN_MOTION_DDOT": 0.00071266701}, "tle": {"line1": "1 67080U 25298F   25354.91668981 -.01598753  71267-3 -50564-2 0  9992", "line2": "2 67080  69.9984 226.8945 0004119 273.9785 120.2279 15.91138067  2231"}}, "geometry": {"type": "Point", "coordinates": [-66.46954104451922, 68.49148168513445]}}, {"type": "Feature", "properties": {"norad_id": 67081, "name": "STARLINK-35864", "group": "last-30-days", "lat": 69.02267188710262, "lon": -62.22425065362496, "alt_km": 296.9477371339508, "timestamp": "2025-12-21T05:44:50.294655+00:00", "meta": {"OBJECT_NAME": "STARLINK-35864", "OBJECT_ID": "2025-298G", "EPOCH": "2025-12-20T22:00:01.999584", "MEAN_MOTION": 15.91202075, "ECCENTRICITY": 0.00040692, "INCLINATION": 69.9986, "RA_OF_ASC_NODE": 226.8925, "ARG_OF_PERICENTER": 272.8768, "MEAN_ANOMALY": 122.886, "EPHEMERIS_TYPE": 0, "CLASSIFICATION_TYPE": "U", "NORAD_CAT_ID": 67081, "ELEMENT_SET_NO": 999, "REV_AT_EPOCH": 229, "BSTAR": -0.0050735389, "MEAN_MOTION_DOT": -0.01609273, "MEAN_MOTION_DDOT": 0.00072182391}, "tle": {"line1": "1 67081U 25298G   25354.91668981 -.01609273  72182-3 -50735-2 0  9990", "line2": "2 67081  69.9986 226.8925 0004069 272.8768 122.8860 15.91202075  2296"}}, "geometry": {"type": "Point", "coordinates": [-62.22425065362496, 69.02267188710262]}}, {"type": "Feature", "properties": {"norad_id": 67082, "name": "STARLINK-36035", "group": "last-30-days", "lat": 69.47068406413176, "lon": -57.447306862771164, "alt_km": 296.77447494109765, "timestamp": "2025-12-21T05:44:50.294665+00:00", "meta": {"OBJECT_NAME": "STARLINK-36035", "OBJECT_ID": "2025-298H", "EPOCH": "2025-12-20T22:00:01.999584", "MEAN_MOTION": 15.91264973, "ECCENTRICITY": 0.00041169, "INCLINATION": 69.9985, "RA_OF_ASC_NODE": 226.8906, "ARG_OF_PERICENTER": 274.2175, "MEAN_ANOMALY": 123.2218, "EPHEMERIS_TYPE": 0, "CLASSIFICATION_TYPE": "U", "NORAD_CAT_ID": 67082, "ELEMENT_SET_NO": 999, "REV_AT_EPOCH": 229, "BSTAR": -0.0050703276, "MEAN_MOTION_DOT": -0.01613411, "MEAN_MOTION_DDOT": 0.00072571265}, "tle": {"line1": "1 67082U 25298H   25354.91668981 -.01613411  72571-3 -50703-2 0  9997", "line2": "2 67082  69.9985 226.8906 0004116 274.2175 123.2218 15.91264973  2293"}}, "geometry": {"type": "Point", "coordinates": [-57.447306862771164, 69.47068406413176]}}, {"type": "Feature", "properties": {"norad_id": 67083, "name": "STARLINK-36170", "group": "last-30-days", "lat": 69.79278299543799, "lon": -52.28493193218993, "alt_km": 296.5449629537661, "timestamp": "2025-12-21T05:44:50.294677+00:00", "meta": {"OBJECT_NAME": "STARLINK-36170", "OBJECT_ID": "2025-298J", "EPOCH": "2025-12-20T22:00:01.999584", "MEAN_MOTION": 15.9133443, "ECCENTRICITY": 0.00040593, "INCLINATION": 69.9983, "RA_OF_ASC_NODE": 226.8884, "ARG_OF_PERICENTER": 272.6688, "MEAN_ANOMALY": 126.5176, "EPHEMERIS_TYPE": 0, "CLASSIFICATION_TYPE": "U", "NORAD_CAT_ID": 67083, "ELEMENT_SET_NO": 999, "REV_AT_EPOCH": 229, "BSTAR": -0.0050764426, "MEAN_MOTION_DOT": -0.01620979, "MEAN_MOTION_DDOT": 0.00073252831}, "tle": {"line1": "1 67083U 25298J   25354.91668981 -.01620979  73253-3 -50764-2 0  9990", "line2": "2 67083  69.9983 226.8884 0004059 272.6688 126.5176 15.91334430  2299"}}, "geometry": {"type": "Point", "coordinates": [-52.28493193218993, 69.79278299543799]}}, {"type": "Feature", "properties": {"norad_id": 67084, "name": "STARLINK-36166", "group": "last-30-days", "lat": 69.95424883173433, "lon": -47.3442338097891, "alt_km": 296.36861025801863, "timestamp": "2025-12-21T05:44:50.294689+00:00", "meta": {"OBJECT_NAME": "STARLINK-36166", "OBJECT_ID": "2025-298K", "EPOCH": "2025-12-20T22:00:01.999584", "MEAN_MOTION": 15.91392752, "ECCENTRICITY": 0.00040628, "INCLINATION": 69.9984, "RA_OF_ASC_NODE": 226.8864, "ARG_OF_PERICENTER": 275.4678, "MEAN_ANOMALY": 125.3555, "EPHEMERIS_TYPE": 0, "CLASSIFICATION_TYPE": "U", "NORAD_CAT_ID": 67084, "ELEMENT_SET_NO": 999, "REV_AT_EPOCH": 223, "BSTAR": -0.0050689187, "MEAN_MOTION_DOT": -0.01623387, "MEAN_MOTION_DDOT": 0.00073496718}, "tle": {"line1": "1 67084U 25298K   25354.91668981 -.01623387  73497-3 -50689-2 0  9993", "line2": "2 67084  69.9984 226.8864 0004062 275.4678 125.3555 15.91392752  2236"}}, "geometry": {"type": "Point", "coordinates": [-47.3442338097891, 69.95424883173433]}}, {"type": "Feature", "properties": {"norad_id": 67085, "name": "STARLINK-35794", "group": "last-30-days", "lat": 69.977574887795, "lon": -42.46289876057518, "alt_km": 296.1847152775481, "timestamp": "2025-12-21T05:44:50.294699+00:00", "meta": {"OBJECT_NAME": "STARLINK-35794", "OBJECT_ID": "2025-298L", "EPOCH": "2025-12-20T22:00:01.999584", "MEAN_MOTION": 15.91461433, "ECCENTRICITY": 0.00040344, "INCLINATION": 69.9983, "RA_OF_ASC_NODE": 226.8845, "ARG_OF_PERICENTER": 274.0615, "MEAN_ANOMALY": 128.3581, "EPHEMERIS_TYPE": 0, "CLASSIFICATION_TYPE": "U", "NORAD_CAT_ID": 67085, "ELEMENT_SET_NO": 999, "REV_AT_EPOCH": 229, "BSTAR": -0.0050860754, "MEAN_MOTION_DOT": -0.0163447, "MEAN_MOTION_DDOT": 0.00074479115}, "tle": {"line1": "1 67085U 25298L   25354.91668981 -.01634470  74479-3 -50861-2 0  9992", "line2": "2 67085  69.9983 226.8845 0004034 274.0615 128.3581 15.91461433  2291"}}, "geometry": {"type": "Point", "coordinates": [-42.46289876057518, 69.977574887795]}}, {"type": "Feature", "properties": {"norad_id": 67086, "name": "STARLINK-35841", "group": "last-30-days", "lat": 69.83700556169623, "lon": -36.82082778498058, "alt_km": 296.03952502566153, "timestamp": "2025-12-21T05:44:50.294709+00:00", "meta": {"OBJECT_NAME": "STARLINK-35841", "OBJECT_ID": "2025-298M", "EPOCH": "2025-12-20T22:00:01.999584", "MEAN_MOTION": 15.9153181, "ECCENTRICITY": 0.00040596, "INCLINATION": 69.9983, "RA_OF_ASC_NODE": 226.8823, "ARG_OF_PERICENTER": 273.9274, "MEAN_ANOMALY": 130.3564, "EPHEMERIS_TYPE": 0, "CLASSIFICATION_TYPE": "U", "NORAD_CAT_ID": 67086, "ELEMENT_SET_NO": 999, "REV_AT_EPOCH": 229, "BSTAR": -0.005106291, "MEAN_MOTION_DOT": -0.01646764, "MEAN_MOTION_DDOT": 0.00075572665}, "tle": {"line1": "1 67086U 25298M   25354.91668981 -.01646764  75573-3 -51063-2 0  9993", "line2": "2 67086  69.9983 226.8823 0004059 273.9274 130.3564 15.91531810  2295"}}, "geometry": {"type": "Point", "coordinates": [-36.82082778498058, 69.83700556169623]}}, {"type": "Feature", "properties": {"norad_id": 67087, "name": "STARLINK-35842", "group": "last-30-days", "lat": 69.61160290867815, "lon": -32.61008397808777, "alt_km": 295.9100268735092, "timestamp": "2025-12-21T05:44:50.294746+00:00", "meta": {"OBJECT_NAME": "STARLINK-35842", "OBJECT_ID": "2025-298N", "EPOCH": "2025-12-20T22:00:01.999584", "MEAN_MOTION": 15.91590971, "ECCENTRICITY": 0.00040708, "INCLINATION": 69.9982, "RA_OF_ASC_NODE": 226.8805, "ARG_OF_PERICENTER": 275.0287, "MEAN_ANOMALY": 130.6629, "EPHEMERIS_TYPE": 0, "CLASSIFICATION_TYPE": "U", "NORAD_CAT_ID": 67087, "ELEMENT_SET_NO": 999, "REV_AT_EPOCH": 229, "BSTAR": -0.0051098336, "MEAN_MOTION_DOT": -0.01652847, "MEAN_MOTION_DDOT": 0.00076135369}, "tle": {"line1": "1 67087U 25298N   25354.91668981 -.01652847  76135-3 -51098-2 0  9996", "line2": "2 67087  69.9982 226.8805 0004070 275.0287 130.6629 15.91590971  2293"}}, "geometry": {"type": "Point", "coordinates": [-32.61008397808777, 69.61160290867815]}}, {"type": "Feature", "properties": {"norad_id": 67088, "name": "STARLINK-35882", "group": "last-30-days", "lat": 69.18304320446907, "lon": -27.41344140015872, "alt_km": 295.7494583338239, "timestamp": "2025-12-21T05:44:50.294756+00:00", "meta": {"OBJECT_NAME": "STARLINK-35882", "OBJECT_ID": "2025-298P", "EPOCH": "2025-12-20T22:00:01.999584", "MEAN_MOTION": 15.91654917, "ECCENTRICITY": 0.00040515, "INCLINATION": 69.9983, "RA_OF_ASC_NODE": 226.8784, "ARG_OF_PERICENTER": 273.2626, "MEAN_ANOMALY": 134.2323, "EPHEMERIS_TYPE": 0, "CLASSIFICATION_TYPE": "U", "NORAD_CAT_ID": 67088, "ELEMENT_SET_NO": 999, "REV_AT_EPOCH": 229, "BSTAR": -0.0050920209, "MEAN_MOTION_DOT": -0.01652491, "MEAN_MOTION_DDOT": 0.00076153309}, "tle": {"line1": "1 67088U 25298P   25354.91668981 -.01652491  76153-3 -50920-2 0  9995", "line2": "2 67088  69.9983 226.8784 0004051 273.2626 134.2323 15.91654917  2299"}}, "geometry": {"type": "Point", "coordinates": [-27.41344140015872, 69.18304320446907]}}, {"type": "Feature", "properties": {"norad_id": 67089, "name": "STARLINK-35763", "group": "last-30-days", "lat": 68.58941277501462, "lon": -22.343549881799895, "alt_km": 295.59852826100087, "timestamp": "2025-12-21T05:44:50.294767+00:00", "meta": {"OBJECT_NAME": "STARLINK-35763", "OBJECT_ID": "2025-298Q", "EPOCH": "2025-12-20T22:00:01.999584", "MEAN_MOTION": 15.91729295, "ECCENTRICITY": 0.0004035, "INCLINATION": 69.998, "RA_OF_ASC_NODE": 226.876, "ARG_OF_PERICENTER": 273.8821, "MEAN_ANOMALY": 135.4491, "EPHEMERIS_TYPE": 0, "CLASSIFICATION_TYPE": "U", "NORAD_CAT_ID": 67089, "ELEMENT_SET_NO": 999, "REV_AT_EPOCH": 229, "BSTAR": -0.0051130784, "MEAN_MOTION_DOT": -0.01665508, "MEAN_MOTION_DDOT": 0.00077325872}, "tle": {"line1": "1 67089U 25298Q   25354.91668981 -.01665508  77326-3 -51131-2 0  9997", "line2": "2 67089  69.9980 226.8760 0004035 273.8821 135.4491 15.91729295  2297"}}, "geometry": {"type": "Point", "coordinates": [-22.343549881799895, 68.58941277501462]}}]}